CUTE-1 (CO-55)          
1 27844U 03031E   26201.82623460  .00000172  00000+0  93434-4 0  9990
2 27844  98.6745 209.9631 0010867  88.2698 271.9726 14.24353809196468
CUBESAT XI-IV (CO-57)   
1 27848U 03031J   26201.48019381  .00000116  00000+0  70115-4 0  9996
2 27848  98.6776 209.3071 0010684 105.6000 254.6359 14.23636281196115
CUBESAT XI-V            
1 28895U 05043F   26201.69535046  .00000717  00000+0  12047-3 0  9994
2 28895  98.3023 358.0290 0015358  99.2356 261.0589 14.72710537106681
CUTE-1.7+APD II (CO-65) 
1 32785U 08021C   26201.92100785  .00002914  00000+0  18484-3 0  9992
2 32785  97.8299 184.0527 0006863 275.3891  84.6554 15.09730364990284
CANX-2                  
1 32790U 08021H   26201.91405372  .00001942  00000+0  13831-3 0  9998
2 32790  97.8660 182.3567 0008621 295.0012  65.0318 15.05825840989880
SEEDS II (CO-66)        
1 32791U 08021J   26201.94032663  .00013404  00000+0  41244-3 0  9996
2 32791  97.7537 201.4796 0003696 144.6807 215.4681 15.33789824992462
SWISSCUBE               
1 35932U 09051B   26201.96616659  .00000595  00000+0  12696-3 0  9991
2 35932  98.4001 110.4390 0008052 103.7314 256.4784 14.62537581894096
BEESAT-1                
1 35933U 09051C   26201.71948310  .00000407  00000+0  91451-4 0  9996
2 35933  98.3928 109.7530 0006394 115.5252 244.6610 14.61766931894088
ITUPSAT1                
1 35935U 09051E   26201.53425089  .00000377  00000+0  87689-4 0  9995
2 35935  98.4013 108.7212 0008387 128.2729 231.9226 14.60483294893602
TISAT 1                 
1 36799U 10035E   26201.81267580  .00013460  00000+0  42641-3 0  9994
2 36799  98.0710 151.3798 0004768 108.9672 251.2085 15.32865338872850
STRAND-1                
1 39090U 13009E   26201.47425459  .00000134  00000+0  59206-4 0  9998
2 39090  98.3940  20.8921 0009644 126.9146 233.2926 14.37180722701842
BRITE-AUSTRIA           
1 39091U 13009F   26201.43193589  .00000073  00000+0  39374-4 0  9997
2 39091  98.4013  20.0477 0011031 136.1688 224.0376 14.36553717701822
NEE-01 PEGASO           
1 39151U 13018B   26201.82613639  .00001762  00000+0  17169-3 0  9993
2 39151  98.1266 347.0989 0013535  57.5576 302.6950 14.93807044715722
POPACS 2                
1 39269U 13055E   26201.44863673  .00014754 -92460-6  24005-3 0  9998
2 39269  80.9906 106.1023 0414501  87.0343 277.8215 14.92165602668172
POPACS 3                
1 39270U 13055F   26201.30018554  .00007300  00000+0  17383-3 0  9996
2 39270  81.0011 193.2626 0548110 329.0952  27.9008 14.56740646643374
ZACUBE-1 (TSHEPISOSAT)  
1 39417U 13066B   26201.86646474  .00001847  00000+0  14537-3 0  9998
2 39417  97.7999 164.3670 0044079 137.0238 223.4444 15.01347026685787
WNISAT-1                
1 39423U 13066H   26201.90591963  .00000715  00000+0  13755-3 0  9996
2 39423  97.7244 348.6759 0164154 125.4433 236.2219 14.58128049671642
TRITON-1                
1 39427U 13066M   26201.99269336  .00001546  00000+0  18883-3 0  9995
2 39427  97.8213 111.0263 0091011 123.4066 237.5894 14.81809908679092
GOMX-1                  
1 39430U 13066Q   26201.95875226  .00000624  00000+0  10069-3 0  9990
2 39430  97.6466  40.2903 0127763 329.6541  29.7311 14.69550100674879
CUBEBUG-2 (LO-74)       
1 39440U 13066AA  26201.82121943  .00001885  00000+0  17745-3 0  9995
2 39440  97.8921 150.9507 0055527 276.2842  83.2055 14.93990306682014
NEE-02 KRYSAOR          
1 39441U 13066AB  26201.79399231  .00001157  00000+0  13161-3 0  9999
2 39441  97.8896 140.7734 0064927 320.7234  38.9280 14.86752626681197
FUNCUBE-1 (AO-73)       
1 39444U 13066AE  26201.85964422  .00005490  00000+0  33755-3 0  9994
2 39444  97.8300 174.0216 0038088  89.2835 271.2758 15.09868744684749
UWE-3                   
1 39446U 13066AG  26201.83392220  .00002531  00000+0  21910-3 0  9998
2 39446  97.8725 158.1433 0047714 205.2045 154.6848 14.97225341682619
BRITE-CA1 (TORONTO)     
1 40020U 14033L   26201.87376748  .00000695  00000+0  11163-3 0  9992
2 40020  97.9778 330.1885 0078905 168.1114 192.1980 14.72730089647170
DUCHIFAT-1              
1 40021U 14033M   26201.77341516  .00107775  00000+0  81365-3 0  9995
2 40021  98.0408 265.8557 0003438 229.1155 130.9809 15.72127670661011
NANOSATC-BR1            
1 40024U 14033Q   26201.05966085  .00009772  00000+0  31482-3 0  9996
2 40024  98.0707 236.3841 0005139  85.0134 275.1692 15.32422309659013
QB50P1                  
1 40025U 14033R   26201.49323626  .00004584  00000+0  22434-3 0  9996
2 40025  98.0973 214.9866 0010529 109.2595 250.9778 15.18713788658087
QB50P2                  
1 40032U 14033Y   26201.97438004  .00004626  00000+0  24766-3 0  9991
2 40032  98.0771 200.9707 0009144  67.6874 292.5326 15.15553719657788
PERSEUS-M2              
1 40037U 14033AD  26201.91751779  .00000079  00000+0  12631-4 0  9994
2 40037  97.9981 153.1508 0011360 180.9978 179.1222 14.95592475655826
PERSEUS-M1              
1 40039U 14033AF  26201.82083823  .00000405  00000+0  41819-4 0  9997
2 40039  97.9653 146.5093 0011330 178.0215 182.1052 14.95725439655663
